NORAD_CAT_ID,OBJECT_NAME,OBJECT_TYPE,EPOCH,MEAN_MOTION,ECCENTRICITY,INCLINATION,RA_OF_ASC_NODE,ARG_OF_PERICENTER,MEAN_ANOMALY,BSTAR,MEAN_MOTION_DOT,MEAN_MOTION_DDOT,TLE_LINE0,TLE_LINE1,TLE_LINE2,SEMIMAJOR_AXIS,PERIOD,APOGEE,PERIGEE,DECAYED
55788.0,STARLINK-5804,PAYLOAD,2024-03-25 18:12:44,14.98335977,0.0002751,70.0019,204.6361,269.1402,90.9442,9.7951e-05,1.076e-05,0.0,0 STARLINK-5804,1 55788U 23028AZ  24085.75884877  .00001076  00000-0  97951-4 0  9990,2 55788  70.0019 204.6361 0002751 269.1402  90.9442 14.98335977 60070,6950.174,96.107,573.951,570.127,0.0
55788.0,STARLINK-5804,PAYLOAD,2024-03-26 11:50:15,14.98314447,0.0003193,70.0013,202.7853,278.447,81.6327,-0.00023285,-2.869e-05,0.0,0 STARLINK-5804,1 55788U 23028AZ  24086.49323426 -.00002869  00000-0 -23285-3 0  9991,2 55788  70.0013 202.7853 0003193 278.4470  81.6327 14.98314447 60188,6950.241,96.108,574.325,569.887,0.0
55788.0,STARLINK-5804,PAYLOAD,2024-03-26 15:02:31,14.98314025,0.0003114,70.0002,202.4456,272.0712,88.0091,-0.00017238,-2.148e-05,0.0,0 STARLINK-5804,1 55788U 23028AZ  24086.62675316 -.00002148  00000-0 -17238-3 0  9995,2 55788  70.0002 202.4456 0003114 272.0712  88.0091 14.98314025 60219,6950.242,96.108,574.272,569.943,0.0
55788.0,STARLINK-5804,PAYLOAD,2024-03-26 16:38:39,14.98316967,0.0002965,70.0007,202.2782,270.2913,89.7906,-0.00018894,-2.346e-05,0.0,0 STARLINK-5804,1 55788U 23028AZ  24086.69351238 -.00002346  00000-0 -18894-3 0  9995,2 55788  70.0007 202.2782 0002965 270.2913  89.7906 14.98316967 60221,6950.233,96.108,574.159,570.037,0.0
55788.0,STARLINK-5804,PAYLOAD,2024-03-27 00:39:19,14.98328234,0.000329,70.0005,201.4361,271.8855,88.1927,-0.00011935,-1.517e-05,0.0,0 STARLINK-5804,1 55788U 23028AZ  24087.02730372 -.00001517  00000-0 -11935-3 0  9991,2 55788  70.0005 201.4361 0003290 271.8855  88.1927 14.98328234 60267,6950.198,96.107,574.35,569.777,0.0
55788.0,STARLINK-5804,PAYLOAD,2024-03-27 13:28:22,14.98339416,0.0002944,70.0008,200.0901,273.6851,86.3971,5.7728e-05,5.96e-06,0.0,0 STARLINK-5804,1 55788U 23028AZ  24087.56137250  .00000596  00000-0  57728-4 0  9991,2 55788  70.0008 200.0901 0002944 273.6851  86.3971 14.98339416 60348,6950.164,96.106,574.075,569.983,0.0
55788.0,STARLINK-5804,PAYLOAD,2024-03-27 16:40:38,14.98339226,0.0002835,70.0013,199.754,270.1618,89.9216,0.00010443,1.154e-05,0.0,0 STARLINK-5804,1 55788U 23028AZ  24087.69489067  .00001154  00000-0  10443-3 0  9994,2 55788  70.0013 199.7540 0002835 270.1618  89.9216 14.98339226 60372,6950.164,96.106,574.0,570.059,0.0
55788.0,STARLINK-5804,PAYLOAD,2024-03-28 13:30:23,14.98326301,0.0002737,70.001,197.5639,257.7612,102.324,0.000232,2.676e-05,0.0,0 STARLINK-5804,1 55788U 23028AZ  24088.56277383  .00002676  00000-0  23200-3 0  9992,2 55788  70.0010 197.5639 0002737 257.7612 102.3240 14.98326301 60490,6950.204,96.107,573.972,570.167,0.0
55788.0,STARLINK-5804,PAYLOAD,2024-03-29 11:56:16,14.98336806,0.0002972,70.0012,195.2075,267.4745,92.6074,1.2592e-05,5.7e-07,0.0,0 STARLINK-5804,1 55788U 23028AZ  24089.49741031  .00000057  00000-0  12592-4 0  9995,2 55788  70.0012 195.2075 0002972 267.4745  92.6074 14.98336806 60641,6950.172,96.107,574.102,569.971,0.0
55788.0,STARLINK-5804,PAYLOAD,2024-03-29 16:44:40,14.98339655,0.0002514,70.0012,194.7027,256.251,103.8369,-1.0844e-05,-2.22e-06,0.0,0 STARLINK-5804,1 55788U 23028AZ  24089.69768800 -.00000222  00000-0 -10844-4 0  9994,2 55788  70.0012 194.7027 0002514 256.2510 103.8369 14.98339655 60669,6950.163,96.106,573.775,570.281,0.0
55788.0,STARLINK-5804,PAYLOAD,2024-03-30 00:45:21,14.98320446,0.0002323,70.0014,193.8598,287.1964,72.8941,8.1063e-05,8.74e-06,0.0,0 STARLINK-5804,1 55788U 23028AZ  24090.03149934  .00000874  00000-0  81063-4 0  9997,2 55788  70.0014 193.8598 0002323 287.1964  72.8941 14.98320446 60713,6950.222,96.108,573.702,570.473,0.0
55788.0,STARLINK-5804,PAYLOAD,2024-03-30 13:34:25,14.98329917,0.0002727,70.0007,192.5149,265.2564,94.8284,-3.7615e-05,-5.42e-06,0.0,0 STARLINK-5804,1 55788U 23028AZ  24090.56557233 -.00000542  00000-0 -37615-4 0  9998,2 55788  70.0007 192.5149 0002727 265.2564  94.8284 14.98329917 60800,6950.193,96.107,573.953,570.163,0.0
55788.0,STARLINK-5804,PAYLOAD,2024-03-31 13:36:26,14.98332347,0.0002635,70.0006,189.9912,258.5407,101.5456,-1.3648e-05,-2.56e-06,0.0,0 STARLINK-5804,1 55788U 23028AZ  24091.56696984 -.00000256  00000-0 -13648-4 0  9998,2 55788  70.0006 189.9912 0002635 258.5407 101.5456 14.98332347 60949,6950.186,96.107,573.882,570.219,0.0
55788.0,STARLINK-5804,PAYLOAD,2024-03-31 16:48:42,14.98332927,0.0002868,70.0009,189.6549,264.3098,95.7734,-1.8017e-05,-3.08e-06,0.0,0 STARLINK-5804,1 55788U 23028AZ  24091.70048955 -.00000308  00000-0 -18017-4 0  9996,2 55788  70.0009 189.6549 0002868 264.3098  95.7734 14.98332927 60974,6950.184,96.107,574.042,570.056,0.0
55788.0,STARLINK-5804,PAYLOAD,2024-04-01 05:37:47,14.98321727,0.0002921,70.001,188.3085,268.5152,91.5673,4.727e-06,-3.7e-07,0.0,0 STARLINK-5804,1 55788U 23028AZ  24092.23457685 -.00000037  00000-0  47270-5 0  9991,2 55788  70.0010 188.3085 0002921 268.5152  91.5673 14.98321727 61045,6950.218,96.108,574.114,570.053,0.0
55788.0,STARLINK-5804,PAYLOAD,2024-04-01 13:38:27,14.98324649,0.0002837,70.0012,187.4676,265.2901,94.7934,3.1342e-05,2.81e-06,0.0,0 STARLINK-5804,1 55788U 23028AZ  24092.56837551  .00000281  00000-0  31342-4 0  9993,2 55788  70.0012 187.4676 0002837 265.2901  94.7934 14.98324649 61103,6950.209,96.107,574.046,570.103,0.0
55788.0,STARLINK-5804,PAYLOAD,2024-04-01 16:50:43,14.9832584,0.0002793,70.0012,187.1311,264.8759,95.2082,0.00010619,1.174e-05,0.0,0 STARLINK-5804,1 55788U 23028AZ  24092.70189317  .00001174  00000-0  10619-3 0  9994,2 55788  70.0012 187.1311 0002793 264.8759  95.2082 14.98325840 61118,6950.206,96.107,574.012,570.13,0.0
55788.0,STARLINK-5804,PAYLOAD,2024-04-02 12:04:19,14.98334858,0.0002832,70.0012,185.1105,267.4417,92.6418,9.5554e-05,1.047e-05,0.0,0 STARLINK-5804,1 55788U 23028AZ  24093.50300665  .00001047  00000-0  95554-4 0  9995,2 55788  70.0012 185.1105 0002832 267.4417  92.6418 14.98334858 61237,6950.178,96.107,574.011,570.075,0.0
55788.0,STARLINK-5804,PAYLOAD,2024-04-02 13:40:27,14.98334368,0.0002828,70.0012,184.9423,266.4257,93.6579,8.9614e-05,9.77e-06,0.0,0 STARLINK-5804,1 55788U 23028AZ  24093.56976690  .00000977  00000-0  89614-4 0  9999,2 55788  70.0012 184.9423 0002828 266.4257  93.6579 14.98334368 61250,6950.179,96.107,574.01,570.079,0.0
55788.0,STARLINK-5804,PAYLOAD,2024-04-02 15:16:35,14.98336434,0.0002863,70.001,184.7743,268.7412,91.3419,8.1686e-05,8.82e-06,0.0,0 STARLINK-5804,1 55788U 23028AZ  24093.63652564  .00000882  00000-0  81686-4 0  9994,2 55788  70.0010 184.7743 0002863 268.7412  91.3419 14.98336434 61263,6950.173,96.107,574.028,570.048,0.0
55788.0,STARLINK-5804,PAYLOAD,2024-04-03 05:41:48,14.98327286,0.0002906,70.001,183.2588,268.7762,91.3064,5.4459e-05,5.57e-06,0.0,0 STARLINK-5804,1 55788U 23028AZ  24094.23737055  .00000557  00000-0  54459-4 0  9997,2 55788  70.0010 183.2588 0002906 268.7762  91.3064 14.98327286 61340,6950.201,96.107,574.086,570.047,0.0
55788.0,STARLINK-5804,PAYLOAD,2024-04-03 12:06:21,14.98327673,0.0002956,70.0006,182.5855,269.5724,90.5097,-8.9372e-06,-2e-06,0.0,0 STARLINK-5804,1 55788U 23028AZ  24094.50441251 -.00000200  00000-0 -89372-5 0  9997,2 55788  70.0006 182.5855 0002956 269.5724  90.5097 14.98327673 61398,6950.2,96.107,574.12,570.011,0.0
55788.0,STARLINK-5804,PAYLOAD,2024-04-03 15:18:37,14.98327074,0.0003038,70.0007,182.2488,270.3712,89.7099,-3.2796e-06,-1.32e-06,0.0,0 STARLINK-5804,1 55788U 23028AZ  24094.63793263 -.00000132  00000-0 -32796-5 0  9996,2 55788  70.0007 182.2488 0003038 270.3712  89.7099 14.98327074 61417,6950.202,96.107,574.178,569.955,0.0
55788.0,STARLINK-5804,PAYLOAD,2024-04-04 12:08:22,14.98332407,0.0003091,70.0004,180.0604,271.2258,88.8547,-7.5684e-05,-9.96e-06,0.0,0 STARLINK-5804,1 55788U 23028AZ  24095.50581019 -.00000996  00000-0 -75684-4 0  9997,2 55788  70.0004 180.0604 0003091 271.2258  88.8547 14.98332407 61531,6950.185,96.107,574.199,569.902,0.0
55788.0,STARLINK-5804,PAYLOAD,2024-04-04 13:44:29,14.98333932,0.0003108,70.0003,179.8921,271.3658,88.7145,-5.7773e-05,-7.82e-06,0.0,0 STARLINK-5804,1 55788U 23028AZ  24095.57256852 -.00000782  00000-0 -57773-4 0  9990,2 55788  70.0003 179.8921 0003108 271.3658  88.7145 14.98333932 61551,6950.181,96.107,574.206,569.886,0.0
55788.0,STARLINK-5804,PAYLOAD,2024-04-04 15:20:37,14.98334959,0.0003108,70.0003,179.724,271.6847,88.3956,-4.4204e-05,-6.2e-06,0.0,0 STARLINK-5804,1 55788U 23028AZ  24095.63932733 -.00000620  00000-0 -44204-4 0  9992,2 55788  70.0003 179.7240 0003108 271.6847  88.3956 14.98334959 61564,6950.178,96.107,574.203,569.882,0.0
55788.0,STARLINK-5804,PAYLOAD,2024-04-05 12:10:22,14.98336087,0.0003094,70.0003,177.5357,272.1444,87.9361,8.5688e-05,9.3e-06,0.0,0 STARLINK-5804,1 55788U 23028AZ  24096.50720073  .00000930  00000-0  85688-4 0  9994,2 55788  70.0003 177.5357 0003094 272.1444  87.9361 14.98336087 61684,6950.174,96.107,574.189,569.889,0.0
55788.0,STARLINK-5804,PAYLOAD,2024-04-05 13:46:30,14.98335903,0.0003099,70.0003,177.3674,272.2825,87.7979,8.2042e-05,8.86e-06,0.0,0 STARLINK-5804,1 55788U 23028AZ  24096.57396071  .00000886  00000-0  82042-4 0  9999,2 55788  70.0003 177.3674 0003099 272.2825  87.7979 14.98335903 61705,6950.175,96.107,574.193,569.886,0.0
55788.0,STARLINK-5804,PAYLOAD,2024-04-05 15:22:38,14.98336644,0.000309,70.0003,177.1991,272.1918,87.8888,8.9316e-05,9.73e-06,0.0,0 STARLINK-5804,1 55788U 23028AZ  24096.64071978  .00000973  00000-0  89316-4 0  9991,2 55788  70.0003 177.1991 0003090 272.1918  87.8888 14.98336644 61712,6950.172,96.107,574.185,569.89,0.0
55788.0,STARLINK-5804,PAYLOAD,2024-04-06 12:12:23,14.98359839,0.0002564,70.0009,175.0117,263.1819,96.9048,-0.00057096,-6.904e-05,0.0,0 STARLINK-5804,1 55788U 23028AZ  24097.50860230 -.00006904  00000-0 -57096-3 0  9995,2 55788  70.0009 175.0117 0002564 263.1819  96.9048 14.98359839 61833,6950.101,96.105,573.748,570.184,0.0
